[{"OBJECT_NAME":"FFLY02","OBJECT_ID":"2025-188H","EPOCH":"2026-03-09T22:44:52.619136","MEAN_MOTION":14.92826675,"ECCENTRICITY":0.00145762,"INCLINATION":97.7427,"RA_OF_ASC_NODE":145.8314,"ARG_OF_PERICENTER":94.3001,"MEAN_ANOMALY":265.9884,"EPHEMERIS_TYPE":0,"CLASSIFICATION_TYPE":"U","NORAD_CAT_ID":65322,"ELEMENT_SET_NO":999,"REV_AT_EPOCH":2910,"BSTAR":0.00025589032,"MEAN_MOTION_DOT":2.597e-5,"MEAN_MOTION_DDOT":0},{"OBJECT_NAME":"COSMOS 2251 DEB","OBJECT_ID":"1993-036AHG","EPOCH":"2026-03-08T10:46:53.014080","MEAN_MOTION":14.81929018,"ECCENTRICITY":0.00877235,"INCLINATION":73.9479,"RA_OF_ASC_NODE":235.9974,"ARG_OF_PERICENTER":61.9882,"MEAN_ANOMALY":299.0134,"EPHEMERIS_TYPE":0,"CLASSIFICATION_TYPE":"U","NORAD_CAT_ID":35043,"ELEMENT_SET_NO":999,"REV_AT_EPOCH":68686,"BSTAR":0.0057795156,"MEAN_MOTION_DOT":0.00049252,"MEAN_MOTION_DDOT":0}]
